GSAT0101 (PRN E11)      
1 37846U 11060A   22104.90018848 -.00000078  00000+0  00000+0 0  9997
2 37846  56.9739  23.0640 0004211   8.5440 351.4698  1.70475024 65134
GSAT0102 (PRN E12)      
1 37847U 11060B   22106.24187633 -.00000078  00000+0  00000+0 0  9996
2 37847  56.9756  23.0270 0004889 343.9744 166.0427  1.70475310 65168
GSAT0103 (PRN E19)      
1 38857U 12055A   22104.94029641  .00000076  00000+0  00000+0 0  9999
2 38857  55.1174 143.4440 0005248 265.1432  94.8923  1.70473698 59024
GSAT0104 (PRN E20)      
1 38858U 12055B   22106.08368925  .00000079  00000+0  00000+0 0  9991
2 38858  55.1180 143.4140 0002829 262.9187  97.1443  1.70473947 59045
GSAT0201 (PRN E18)      
1 40128U 14050A   22101.91239717 -.00000063  00000+0  00000+0 0  9998
2 40128  50.3237 334.9331 1629991 121.6168 255.3281  1.85519111 49983
GSAT0202 (PRN E14)      
1 40129U 14050B   22105.94662858 -.00000060  00000+0  00000+0 0  9999
2 40129  50.3474 333.8311 1627011 122.5686 254.2025  1.85519519 52226
GSAT0203 (PRN E26)      
1 40544U 15017A   22104.09453181 -.00000079  00000+0  00000+0 0  9996
2 40544  56.7685  23.1277 0003049 291.4628  68.5096  1.70475627 43208
GSAT0204 (PRN E22)      
1 40545U 15017B   22103.17402306 -.00000080  00000+0  00000+0 0  9990
2 40545  56.7742  23.1655 0002179 279.4496  80.5293  1.70475589  6237
GSAT0205 (PRN E24)      
1 40889U 15045A   22105.28743155  .00000006  00000+0  00000+0 0  9993
2 40889  55.6680 263.7053 0005314  30.1176 329.8637  1.70473642 41038
GSAT0206 (PRN E30)      
1 40890U 15045B   22106.09479244  .00000004  00000+0  00000+0 0  9998
2 40890  55.6656 263.6788 0003421  27.3500 332.6160  1.70473603 41077
GSAT0209 (PRN E09)      
1 41174U 15079A   22102.16372521  .00000057  00000+0  00000+0 0  9993
2 41174  55.1330 143.2233 0005097 300.5829  59.4519  1.70474951 38745
GSAT0208 (PRN E08)      
1 41175U 15079B   22106.48924221  .00000079  00000+0  00000+0 0  9997
2 41175  55.1326 143.1032 0004516 299.3331  60.7157  1.70474834 39233
GSAT0211 (PRN E02)      
1 41549U 16030A   22106.02207048  .00000005  00000+0  00000+0 0  9990
2 41549  55.8113 263.6072 0003395 354.4276   5.5168  1.70475133 36707
GSAT0210 (PRN E01)      
1 41550U 16030B   22104.55500590  .00000009  00000+0  00000+0 0  9990
2 41550  55.8111 263.6491 0001800 324.2648  35.6772  1.70475231 36679
GSAT0207 (PRN E07)      
1 41859U 16069A   22105.38927693  .00000077  00000+0  00000+0 0  9998
2 41859  54.7938 143.3315 0005415 289.3382  70.6989  1.70473485 33425
GSAT0212 (PRN E03)      
1 41860U 16069B   22105.82926907  .00000078  00000+0  00000+0 0  9997
2 41860  54.7915 143.3169 0003889 305.8641  54.1953  1.70473459 33681
GSAT0213 (PRN E04)      
1 41861U 16069C   22106.19472864  .00000078  00000+0  00000+0 0  9997
2 41861  54.7941 143.3120 0005250 271.5199  88.5147  1.70473530 33551
GSAT0214 (PRN E05)      
1 41862U 16069D   22102.82228471  .00000061  00000+0  00000+0 0  9999
2 41862  54.7914 143.4000 0004260 273.9677  86.0718  1.70473668 33624
GSAT0215 (PRN E21)      
1 43055U 17079A   22104.48609883  .00000009  00000+0  00000+0 0  9993
2 43055  55.7878 263.4828 0001173 328.4682  31.4791  1.70474399 26992
GSAT0216 (PRN E25)      
1 43056U 17079B   22105.95152564  .00000005  00000+0  00000+0 0  9992
2 43056  55.7870 263.4424 0002684 299.9705  59.9511  1.70474491 27037
GSAT0217 (PRN E27)      
1 43057U 17079C   22105.58516734  .00000006  00000+0  00000+0 0  9996
2 43057  55.7854 263.4521 0002756 324.1461  35.7849  1.70474430 27015
GSAT0218 (PRN E31)      
1 43058U 17079D   22105.21859735  .00000007  00000+0  00000+0 0  9999
2 43058  55.7858 263.4598 0002994 291.2776  68.6412  1.70474408 27039
GSAT0221 (PRN E15)      
1 43564U 18060A   22102.77057164 -.00000080  00000+0  00000+0 0  9998
2 43564  57.1508  22.9630 0004191 303.9776  55.9861  1.70475478 23150
GSAT0222 (PRN E33)      
1 43565U 18060B   22102.99042783 -.00000080  00000+0  00000+0 0  9994
2 43565  57.1532  22.9575 0004130 314.2437  45.7261  1.70475388 23193
GSAT0219 (PRN E36)      
1 43566U 18060C   22102.62440361 -.00000080  00000+0  00000+0 0  9999
2 43566  57.1539  22.9692 0003882 316.7664  43.2065  1.70475491 23160
GSAT0220 (PRN E13)      
1 43567U 18060D   22102.84446601 -.00000080  00000+0  00000+0 0  9997
2 43567  57.1536  22.9645 0003882 311.1774  48.7927  1.70475475 23155
GSAT0223                
1 49809U 21116A   22104.13049919 -.00000079  00000+0  00000+0 0  9991
2 49809  57.1468  22.8281 0000372 299.2731 219.9232  1.70475517  2187
GSAT0224                
1 49810U 21116B   22102.23509912 -.00000081  00000+0  00000+0 0  9999
2 49810  57.1471  22.8773 0000808 351.1838 197.2542  1.70475654  2172
